KUIPER-00095            
1 65134U 25171C   25290.66949699  .00055060  00000+0  14868-2 0  9995
2 65134  51.8743  80.7256 0004542  26.6930 333.4290 15.37215307 11570
KUIPER-00096            
1 65135U 25171D   25290.75002315  .00013701  00000+0  41103-3 0  9990
2 65135  51.8747  80.1964 0006033  24.2844 130.3188 15.34737270  5679
KUIPER-00097            
1 65136U 25171E   25290.75002315 -.00787719  00000+0 -30493-1 0  9998
2 65136  51.8789  80.6661 0003595  15.5197 248.5004 15.28161176  4755
KUIPER-00098            
1 65137U 25171F   25290.75002315 -.00599772  00000+0 -26692-1 0  9995
2 65137  51.8795  80.8486 0006642   8.1239 193.2308 15.23266118  5437
KUIPER-00099            
1 65138U 25171G   25290.45004709  .00111386  00000+0  29033-2 0  9994
2 65138  51.8740  81.5209 0005912 358.4363   1.6605 15.37961809 11531
KUIPER-00100            
1 65139U 25171H   25290.71949612  .00073391  00000+0  19411-2 0  9997
2 65139  51.8733  80.3129 0005218  11.2690 348.8413 15.37724433 11575
KUIPER-00102            
1 65140U 25171J   25290.73475853  .00007678  00000+0  21762-3 0  9990
2 65140  51.8741  80.4097 0004950  22.6227 337.4977 15.37232392 11572
KUIPER-00103            
1 65141U 25171K   25290.75002315  .00011861  00000+0  90019-3 0  9992
2 65141  51.8925  83.9534 0005710  23.4960  96.5783 15.02569900  5761
